*******************************************************************************
Ephemeris / WWW_USER Mon Jul 15 19:04:09 2024 Pasadena, USA      / Horizons    
*******************************************************************************
Target body name: (2018 RD5)                      {source: JPL#11}
Center body name: Earth (399)                     {source: DE441}
Center-site name: Gemini South Obs., Cerro Pachon
*******************************************************************************
Start time      : A.D. 2019-Jan-27 23:53:00.0000 UT      
Stop  time      : A.D. 2019-Jan-28 09:58:00.0000 UT      
Step-size       : 1 minutes
*******************************************************************************
Target pole/equ : undefined
Target radii    : undefined                                                    
Center geodetic : 289.2634, -30.2406227, 2.71233  {E-lon(deg),Lat(deg),Alt(km)}
Center cylindric: 289.2634,5517.21435,-3194.81213 {E-lon(deg),Dxy(km),Dz(km)}
Center pole/equ : ITRF93                          {East-longitude positive}
Center radii    : 6378.137, 6378.137, 6356.752 km {Equator_a, b, pole_c}       
Target primary  : Sun
Vis. interferer : MOON (R_eq= 1737.400) km        {source: DE441}
Rel. light bend : Sun                             {source: DE441}
Rel. lght bnd GM: 1.3271E+11 km^3/s^2                                          
Small-body perts: Yes                             {source: SB441-N16}
Atmos refraction: NO (AIRLESS)
RA format       : HMS
Time format     : CAL 
Calendar mode   : Mixed Julian/Gregorian
RTS-only print  : NO       
EOP file        : eop.240715.p241008                                           
EOP coverage    : DATA-BASED 1962-JAN-20 TO 2024-JUL-15. PREDICTS-> 2024-OCT-07
Units conversion: 1 au= 149597870.700 km, c= 299792.458 km/s, 1 day= 86400.0 s 
Table cut-offs 1: Elevation (-90.0deg=NO ),Airmass (>38.000=NO), Daylight (YES)
Table cut-offs 2: Solar elongation (  0.0,180.0=NO ),Local Hour Angle( 0.0=NO )
Table cut-offs 3: RA/DEC angular rate (     0.0=NO )                           
*******************************************************************************
Initial IAU76/J2000 heliocentric ecliptic osculating elements (au, days, deg.):
  EPOCH=  2458378.5 ! 2018-Sep-17.00 (TDB)         Residual RMS= .55339        
   EC= .2891632988519429   QR= 1.009650912138325   TP= 2458360.6433297051      
   OM= 171.0145363394364   W=  163.7983400129293   IN= 8.474307805886117       
  Equivalent ICRF heliocentric cartesian coordinates (au, au/d):
   X= 1.017757009008053E+00  Y=-8.967367621791844E-02  Z=-4.840656937149759E-02
  VX= 3.309922676318766E-03 VY= 1.832358809606965E-02 VZ= 4.854018792897502E-03
Asteroid physical parameters (km, seconds, rotational period in hours):        
   GM= n.a.                RAD= n.a.               ROTPER= n.a.                
   H= 25.9                 G= .150                 B-V= n.a.                   
                           ALBEDO= n.a.            STYP= n.a.                  
*******************************************************************************
 Date__(UT)__HR:MN     R.A._________(ICRF)_________DEC
******************************************************
$$SOE
 2019-Jan-28 03:59     03 49 35.685083 +05 35 20.72890
 2019-Jan-28 04:00     03 49 35.748350 +05 35 21.39211
 2019-Jan-28 04:01     03 49 35.811627 +05 35 22.05532
 2019-Jan-28 04:02     03 49 35.874914 +05 35 22.71851
 2019-Jan-28 04:03     03 49 35.938211 +05 35 23.38169
 2019-Jan-28 04:04     03 49 36.001517 +05 35 24.04485
 2019-Jan-28 04:05     03 49 36.064834 +05 35 24.70801
 2019-Jan-28 04:06     03 49 36.128160 +05 35 25.37115
 2019-Jan-28 04:07     03 49 36.191497 +05 35 26.03427
 2019-Jan-28 04:08     03 49 36.254843 +05 35 26.69739
 2019-Jan-28 04:09     03 49 36.318200 +05 35 27.36049
 2019-Jan-28 04:10     03 49 36.381566 +05 35 28.02358
 2019-Jan-28 04:11     03 49 36.444942 +05 35 28.68665
 2019-Jan-28 04:12     03 49 36.508329 +05 35 29.34972
 2019-Jan-28 04:13     03 49 36.571726 +05 35 30.01277
 2019-Jan-28 04:14     03 49 36.635132 +05 35 30.67581
 2019-Jan-28 04:15     03 49 36.698549 +05 35 31.33883
 2019-Jan-28 04:16     03 49 36.761976 +05 35 32.00185
 2019-Jan-28 04:17     03 49 36.825413 +05 35 32.66485
 2019-Jan-28 04:18     03 49 36.888861 +05 35 33.32784
 2019-Jan-28 04:19     03 49 36.952318 +05 35 33.99082
 2019-Jan-28 04:20     03 49 37.015786 +05 35 34.65378
 2019-Jan-28 04:21     03 49 37.079264 +05 35 35.31674
 2019-Jan-28 04:22     03 49 37.142753 +05 35 35.97968
 2019-Jan-28 04:23     03 49 37.206251 +05 35 36.64261
 2019-Jan-28 04:24     03 49 37.269760 +05 35 37.30552
 2019-Jan-28 04:25     03 49 37.333280 +05 35 37.96843
 2019-Jan-28 04:26  m  03 49 37.396810 +05 35 38.63133
 2019-Jan-28 04:27  m  03 49 37.460350 +05 35 39.29421
 2019-Jan-28 04:28  m  03 49 37.523900 +05 35 39.95708
 2019-Jan-28 04:29  m  03 49 37.587461 +05 35 40.61994
 2019-Jan-28 04:30  m  03 49 37.651032 +05 35 41.28279
 2019-Jan-28 04:31  m  03 49 37.714614 +05 35 41.94563
 2019-Jan-28 04:32  m  03 49 37.778207 +05 35 42.60845
 2019-Jan-28 04:33  m  03 49 37.841809 +05 35 43.27127
 2019-Jan-28 04:34  m  03 49 37.905423 +05 35 43.93407
 2019-Jan-28 04:35  m  03 49 37.969047 +05 35 44.59686
 2019-Jan-28 04:36  m  03 49 38.032681 +05 35 45.25965
 2019-Jan-28 04:37  m  03 49 38.096326 +05 35 45.92242
 2019-Jan-28 04:38  m  03 49 38.159982 +05 35 46.58518
 2019-Jan-28 04:39  m  03 49 38.223648 +05 35 47.24793
 2019-Jan-28 04:40  m  03 49 38.287325 +05 35 47.91066
 2019-Jan-28 04:41  m  03 49 38.351012 +05 35 48.57339
 2019-Jan-28 04:42  m  03 49 38.414710 +05 35 49.23611
 2019-Jan-28 04:43  m  03 49 38.478419 +05 35 49.89881
 2019-Jan-28 04:44  m  03 49 38.542139 +05 35 50.56151
 2019-Jan-28 04:45  m  03 49 38.605869 +05 35 51.22420
 2019-Jan-28 04:46  m  03 49 38.669610 +05 35 51.88687
 2019-Jan-28 04:47  m  03 49 38.733361 +05 35 52.54954
 2019-Jan-28 04:48  m  03 49 38.797124 +05 35 53.21219
 2019-Jan-28 04:49  m  03 49 38.860897 +05 35 53.87484
 2019-Jan-28 04:50  m  03 49 38.924681 +05 35 54.53747
 2019-Jan-28 04:51  m  03 49 38.988476 +05 35 55.20009
 2019-Jan-28 04:52  m  03 49 39.052281 +05 35 55.86271
 2019-Jan-28 04:53  m  03 49 39.116098 +05 35 56.52531
 2019-Jan-28 04:54  m  03 49 39.179925 +05 35 57.18791
 2019-Jan-28 04:55  m  03 49 39.243763 +05 35 57.85049
 2019-Jan-28 04:56  m  03 49 39.307612 +05 35 58.51307
 2019-Jan-28 04:57  m  03 49 39.371472 +05 35 59.17563
 2019-Jan-28 04:58  m  03 49 39.435343 +05 35 59.83819
 2019-Jan-28 04:59  m  03 49 39.499225 +05 36 00.50074
 2019-Jan-28 05:00  m  03 49 39.563117 +05 36 01.16327
 2019-Jan-28 05:01  m  03 49 39.627021 +05 36 01.82580
 2019-Jan-28 05:02  m  03 49 39.690935 +05 36 02.48832
 2019-Jan-28 05:03  m  03 49 39.754861 +05 36 03.15083
 2019-Jan-28 05:04  m  03 49 39.818797 +05 36 03.81333
 2019-Jan-28 05:05  m  03 49 39.882745 +05 36 04.47582
 2019-Jan-28 05:06  m  03 49 39.946703 +05 36 05.13830
 2019-Jan-28 05:07  m  03 49 40.010673 +05 36 05.80078
 2019-Jan-28 05:08  m  03 49 40.074653 +05 36 06.46324
 2019-Jan-28 05:09  m  03 49 40.138645 +05 36 07.12570
 2019-Jan-28 05:10  m  03 49 40.202648 +05 36 07.78814
 2019-Jan-28 05:11  m  03 49 40.266661 +05 36 08.45058
 2019-Jan-28 05:12  m  03 49 40.330686 +05 36 09.11301
 2019-Jan-28 05:13  m  03 49 40.394722 +05 36 09.77543
 2019-Jan-28 05:14  m  03 49 40.458769 +05 36 10.43784
 2019-Jan-28 05:15  m  03 49 40.522827 +05 36 11.10025
 2019-Jan-28 05:16  m  03 49 40.586896 +05 36 11.76264
 2019-Jan-28 05:17  m  03 49 40.650977 +05 36 12.42503
 2019-Jan-28 05:18  m  03 49 40.715068 +05 36 13.08741
 2019-Jan-28 05:19  m  03 49 40.779171 +05 36 13.74978
 2019-Jan-28 05:20  m  03 49 40.843284 +05 36 14.41214
 2019-Jan-28 05:21  m  03 49 40.907409 +05 36 15.07450
 2019-Jan-28 05:22  m  03 49 40.971545 +05 36 15.73685
 2019-Jan-28 05:23  m  03 49 41.035693 +05 36 16.39919
 2019-Jan-28 05:24  m  03 49 41.099851 +05 36 17.06152
 2019-Jan-28 05:25  m  03 49 41.164021 +05 36 17.72384
 2019-Jan-28 05:26  m  03 49 41.228202 +05 36 18.38616
 2019-Jan-28 05:27  m  03 49 41.292394 +05 36 19.04847
 2019-Jan-28 05:28  m  03 49 41.356597 +05 36 19.71077
 2019-Jan-28 05:29  m  03 49 41.420812 +05 36 20.37306
 2019-Jan-28 05:30  m  03 49 41.485037 +05 36 21.03535
 2019-Jan-28 05:31  m  03 49 41.549274 +05 36 21.69763
 2019-Jan-28 05:32  m  03 49 41.613523 +05 36 22.35990
 2019-Jan-28 05:33  m  03 49 41.677782 +05 36 23.02216
 2019-Jan-28 05:34  m  03 49 41.742053 +05 36 23.68442
 2019-Jan-28 05:35  m  03 49 41.806335 +05 36 24.34667
 2019-Jan-28 05:36  m  03 49 41.870629 +05 36 25.00892
 2019-Jan-28 05:37  m  03 49 41.934933 +05 36 25.67115
 2019-Jan-28 05:38  m  03 49 41.999249 +05 36 26.33338
 2019-Jan-28 05:39  m  03 49 42.063576 +05 36 26.99561
 2019-Jan-28 05:40  m  03 49 42.127915 +05 36 27.65782
 2019-Jan-28 05:41  m  03 49 42.192265 +05 36 28.32003
 2019-Jan-28 05:42  m  03 49 42.256626 +05 36 28.98224
 2019-Jan-28 05:43  m  03 49 42.320998 +05 36 29.64443
 2019-Jan-28 05:44  m  03 49 42.385382 +05 36 30.30662
 2019-Jan-28 05:45  m  03 49 42.449777 +05 36 30.96881
 2019-Jan-28 05:46  m  03 49 42.514183 +05 36 31.63099
 2019-Jan-28 05:47  m  03 49 42.578601 +05 36 32.29316
 2019-Jan-28 05:48  m  03 49 42.643030 +05 36 32.95532
 2019-Jan-28 05:49  m  03 49 42.707471 +05 36 33.61748
 2019-Jan-28 05:50  m  03 49 42.771922 +05 36 34.27964
 2019-Jan-28 05:51  m  03 49 42.836385 +05 36 34.94179
 2019-Jan-28 05:52  m  03 49 42.900860 +05 36 35.60393
 2019-Jan-28 05:53  m  03 49 42.965346 +05 36 36.26606
 2019-Jan-28 05:54  m  03 49 43.029843 +05 36 36.92820
 2019-Jan-28 05:55  m  03 49 43.094351 +05 36 37.59032
 2019-Jan-28 05:56  m  03 49 43.158871 +05 36 38.25244
 2019-Jan-28 05:57  m  03 49 43.223402 +05 36 38.91455
 2019-Jan-28 05:58  m  03 49 43.287945 +05 36 39.57666
 2019-Jan-28 05:59  m  03 49 43.352499 +05 36 40.23877
 2019-Jan-28 06:00  m  03 49 43.417064 +05 36 40.90086
 2019-Jan-28 06:01  m  03 49 43.481641 +05 36 41.56296
